{
    "links": {
        "self": "http://www.neowsapp.com/rest/v1/neo/3843065?api_key=iIulBulltgU6a56xZRHN4H3l9WmuAYTsLGpBGhQ2"
    },
    "id": "3843065",
    "neo_reference_id": "3843065",
    "name": "(2019 MC3)",
    "designation": "2019 MC3",
    "nasa_jpl_url": "http://ssd.jpl.nasa.gov/sbdb.cgi?sstr=3843065",
    "absolute_magnitude_h": 25.1,
    "estimated_diameter": {
        "kilometers": {
            "estimated_diameter_min": 0.0253837029,
            "estimated_diameter_max": 0.0567596853
        },
        "meters": {
            "estimated_diameter_min": 25.3837029364,
            "estimated_diameter_max": 56.7596852866
        },
        "miles": {
            "estimated_diameter_min": 0.0157726969,
            "estimated_diameter_max": 0.0352688224
        },
        "feet": {
            "estimated_diameter_min": 83.279867942,
            "estimated_diameter_max": 186.2194458756
        }
    },
    "is_potentially_hazardous_asteroid": false,
    "close_approach_data": [
        {
            "close_approach_date": "2019-06-12",
            "close_approach_date_full": "2019-Jun-12 02:26",
            "epoch_date_close_approach": 1560306360000,
            "relative_velocity": {
                "kilometers_per_second": "7.2779046342",
                "kilometers_per_hour": "26200.4566832045",
                "miles_per_hour": "16279.9448762945"
            },
            "miss_distance": {
                "astronomical": "0.0712045164",
                "lunar": "27.6985568796",
                "kilometers": "10652043.987820068",
                "miles": "6618873.2128022184"
            },
            "orbiting_body": "Earth"
        }
    ],
    "orbital_data": {
        "orbit_id": "2",
        "orbit_determination_date": "2019-11-14 09:20:06",
        "first_observation_date": "2019-06-30",
        "last_observation_date": "2019-07-02",
        "data_arc_in_days": 2,
        "observations_used": 12,
        "orbit_uncertainty": "9",
        "minimum_orbit_intersection": ".0679587",
        "jupiter_tisserand_invariant": "3.592",
        "epoch_osculation": "2458665.5",
        "eccentricity": ".4824425386224572",
        "semi_major_axis": "2.085125892515602",
        "inclination": "8.535623185701345",
        "ascending_node_longitude": "269.7607683070662",
        "orbital_period": "1099.757288187104",
        "perihelion_distance": "1.079172463582958",
        "perihelion_argument": "347.0549941078097",
        "aphelion_distance": "3.091079321448245",
        "perihelion_time": "2458642.171073096235",
        "mean_anomaly": "7.636606527245459",
        "mean_motion": ".3273449549886071",
        "equinox": "J2000",
        "orbit_class": {
            "orbit_class_type": "AMO",
            "orbit_class_description": "Near-Earth asteroid orbits similar to that of 1221 Amor",
            "orbit_class_range": "1.017 AU < q (perihelion) < 1.3 AU"
        }
    },
    "is_sentry_object": false
}